[{"OBJECT_NAME":"JILIN-1 05","OBJECT_ID":"2017-074B","EPOCH":"2026-03-09T21:56:30.612480","MEAN_MOTION":15.3245271,"ECCENTRICITY":0.00045948,"INCLINATION":97.4781,"RA_OF_ASC_NODE":173.8936,"ARG_OF_PERICENTER":206.4038,"MEAN_ANOMALY":153.6971,"EPHEMERIS_TYPE":0,"CLASSIFICATION_TYPE":"U","NORAD_CAT_ID":43023,"ELEMENT_SET_NO":999,"REV_AT_EPOCH":45879,"BSTAR":0.00026108793,"MEAN_MOTION_DOT":8.104e-5,"MEAN_MOTION_DDOT":0},{"OBJECT_NAME":"STARLINK-34333","OBJECT_ID":"2025-120J","EPOCH":"2026-03-09T12:24:30.929760","MEAN_MOTION":15.30191213,"ECCENTRICITY":0.00015241,"INCLINATION":53.1602,"RA_OF_ASC_NODE":117.2177,"ARG_OF_PERICENTER":66.8946,"MEAN_ANOMALY":293.2215,"EPHEMERIS_TYPE":0,"CLASSIFICATION_TYPE":"U","NORAD_CAT_ID":64264,"ELEMENT_SET_NO":999,"REV_AT_EPOCH":4384,"BSTAR":0.00097034954,"MEAN_MOTION_DOT":0.00028482,"MEAN_MOTION_DDOT":0}]
